{
  "type": "FeatureCollection",
  "features": [
    {
      "type": "Feature",
      "properties": {
        "norad_id": 40376,
        "name": "SMAP",
        "group": "resource",
        "lat": 73.50712327168176,
        "lon": -147.64069687019415,
        "alt_km": 674.4600235814769,
        "timestamp": "2025-12-24T22:42:21.679358+00:00",
        "meta_object_name": "SMAP",
        "meta_object_id": "2015-003A",
        "meta_epoch": "2025-12-24T05:49:13.738368",
        "meta_mean_motion": 14.63358751,
        "meta_eccentricity": 0.00012317,
        "meta_inclination": 98.129,
        "meta_ra_of_asc_node": 2.8006,
        "meta_arg_of_pericenter": 92.2001,
        "meta_mean_anomaly": 267.9342,
        "meta_ephemeris_type": 0,
        "meta_classification_type": "U",
        "meta_norad_cat_id": 40376,
        "meta_element_set_no": 999,
        "meta_rev_at_epoch": 58203,
        "meta_bstar": 0.00011155498,
        "meta_mean_motion_dot": 5.29e-06,
        "meta_mean_motion_ddot": 0,
        "tle_line1": "1 40376U 15003A   25358.24252012  .00000529  00000+0  11155-3 0  9991",
        "tle_line2": "2 40376  98.1290   2.8006 0001231  92.2001 267.9342 14.63358751582032"
      },
      "geometry": {
        "type": "Point",
        "coordinates": [
          -147.64069687019415,
          73.50712327168176
        ]
      }
    },
    {
      "type": "Feature",
      "properties": {
        "norad_id": 40536,
        "name": "KOMPSAT-3A",
        "group": "resource",
        "lat": 76.20600291281193,
        "lon": -172.68377735741805,
        "alt_km": 422.16505775272253,
        "timestamp": "2025-12-24T22:42:21.679368+00:00",
        "meta_object_name": "KOMPSAT-3A",
        "meta_object_id": "2015-014A",
        "meta_epoch": "2025-12-24T06:43:05.477664",
        "meta_mean_motion": 15.4435884,
        "meta_eccentricity": 0.00056026,
        "meta_inclination": 97.6805,
        "meta_ra_of_asc_node": 333.2671,
        "meta_arg_of_pericenter": 102.2339,
        "meta_mean_anomaly": 257.9537,
        "meta_ephemeris_type": 0,
        "meta_classification_type": "U",
        "meta_norad_cat_id": 40536,
        "meta_element_set_no": 999,
        "meta_rev_at_epoch": 59473,
        "meta_bstar": 0.00047583724,
        "meta_mean_motion_dot": 0.00021903,
        "meta_mean_motion_ddot": 0,
        "tle_line1": "1 40536U 15014A   25358.27992451  .00021903  00000+0  47584-3 0  9996",
        "tle_line2": "2 40536  97.6805 333.2671 0005602 102.2339 257.9537 15.44358840594731"
      },
      "geometry": {
        "type": "Point",
        "coordinates": [
          -172.68377735741805,
          76.20600291281193
        ]
      }
    },
    {
      "type": "Feature",
      "properties": {
        "norad_id": 40697,
        "name": "SENTINEL-2A",
        "group": "resource",
        "lat": -14.807322069750825,
        "lon": 73.59324675997668,
        "alt_km": 793.8360089470953,
        "timestamp": "2025-12-24T22:42:21.679378+00:00",
        "meta_object_name": "SENTINEL-2A",
        "meta_object_id": "2015-028A",
        "meta_epoch": "2025-12-24T07:40:15.197376",
        "meta_mean_motion": 14.3081028,
        "meta_eccentricity": 0.00010716,
        "meta_inclination": 98.5732,
        "meta_ra_of_asc_node": 70.6901,
        "meta_arg_of_pericenter": 89.6301,
        "meta_mean_anomaly": 270.5004,
        "meta_ephemeris_type": 0,
        "meta_classification_type": "U",
        "meta_norad_cat_id": 40697,
        "meta_element_set_no": 999,
        "meta_rev_at_epoch": 54872,
        "meta_bstar": 0.0001104215,
        "meta_mean_motion_dot": 2.46e-06,
        "meta_mean_motion_ddot": 0,
        "tle_line1": "1 40697U 15028A   25358.31962034  .00000246  00000+0  11042-3 0  9995",
        "tle_line2": "2 40697  98.5732  70.6901 0001071  89.6301 270.5004 14.30810280548722"
      },
      "geometry": {
        "type": "Point",
        "coordinates": [
          73.59324675997668,
          -14.807322069750825
        ]
      }
    },
    {
      "type": "Feature",
      "properties": {
        "norad_id": 40701,
        "name": "GAOFEN-8",
        "group": "resource",
        "lat": 81.8228932470849,
        "lon": 107.56287786264954,
        "alt_km": 433.84989965342993,
        "timestamp": "2025-12-24T22:42:21.679389+00:00",
        "meta_object_name": "GAOFEN-8",
        "meta_object_id": "2015-030A",
        "meta_epoch": "2025-12-24T06:43:26.445216",
        "meta_mean_motion": 15.38946373,
        "meta_eccentricity": 0.00114985,
        "meta_inclination": 97.6905,
        "meta_ra_of_asc_node": 176.9856,
        "meta_arg_of_pericenter": 97.2883,
        "meta_mean_anomaly": 262.9669,
        "meta_ephemeris_type": 0,
        "meta_classification_type": "U",
        "meta_norad_cat_id": 40701,
        "meta_element_set_no": 999,
        "meta_rev_at_epoch": 58448,
        "meta_bstar": 0.00092346622,
        "meta_mean_motion_dot": 0.00035709,
        "meta_mean_motion_ddot": 0,
        "tle_line1": "1 40701U 15030A   25358.28016719  .00035709  00000+0  92347-3 0  9999",
        "tle_line2": "2 40701  97.6905 176.9856 0011498  97.2883 262.9669 15.38946373584480"
      },
      "geometry": {
        "type": "Point",
        "coordinates": [
          107.56287786264954,
          81.8228932470849
        ]
      }
    },
    {
      "type": "Feature",
      "properties": {
        "norad_id": 40718,
        "name": "CARBONITE 1 (CBNT-1)",
        "group": "resource",
        "lat": 79.19372361439113,
        "lon": 134.76411552269133,
        "alt_km": 607.7469809223148,
        "timestamp": "2025-12-24T22:42:21.679399+00:00",
        "meta_object_name": "CARBONITE 1 (CBNT-1)",
        "meta_object_id": "2015-032D",
        "meta_epoch": "2025-12-24T07:45:35.366400",
        "meta_mean_motion": 14.82794403,
        "meta_eccentricity": 0.00153027,
        "meta_inclination": 97.6401,
        "meta_ra_of_asc_node": 178.8571,
        "meta_arg_of_pericenter": 144.1147,
        "meta_mean_anomaly": 216.1098,
        "meta_ephemeris_type": 0,
        "meta_classification_type": "U",
        "meta_norad_cat_id": 40718,
        "meta_element_set_no": 999,
        "meta_rev_at_epoch": 56342,
        "meta_bstar": 0.00031727297,
        "meta_mean_motion_dot": 2.52e-05,
        "meta_mean_motion_ddot": 0,
        "tle_line1": "1 40718U 15032D   25358.32332600  .00002520  00000+0  31727-3 0  9994",
        "tle_line2": "2 40718  97.6401 178.8571 0015302 144.1147 216.1098 14.82794403563428"
      },
      "geometry": {
        "type": "Point",
        "coordinates": [
          134.76411552269133,
          79.19372361439113
        ]
      }
    },
    {
      "type": "Feature",
      "properties": {
        "norad_id": 40878,
        "name": "YAOGAN-27",
        "group": "resource",
        "lat": 26.42673203225639,
        "lon": -17.0688431777546,
        "alt_km": 1202.32232972363,
        "timestamp": "2025-12-24T22:42:21.679409+00:00",
        "meta_object_name": "YAOGAN-27",
        "meta_object_id": "2015-040A",
        "meta_epoch": "2025-12-24T06:08:57.186816",
        "meta_mean_motion": 13.16062693,
        "meta_eccentricity": 0.00075428,
        "meta_inclination": 100.1015,
        "meta_ra_of_asc_node": 347.3551,
        "meta_arg_of_pericenter": 258.0878,
        "meta_mean_anomaly": 101.939,
        "meta_ephemeris_type": 0,
        "meta_classification_type": "U",
        "meta_norad_cat_id": 40878,
        "meta_element_set_no": 999,
        "meta_rev_at_epoch": 49465,
        "meta_bstar": 0.0015216964,
        "meta_mean_motion_dot": 5.36e-06,
        "meta_mean_motion_ddot": 0,
        "tle_line1": "1 40878U 15040A   25358.25621744  .00000536  00000+0  15217-2 0  9992",
        "tle_line2": "2 40878 100.1015 347.3551 0007542 258.0878 101.9390 13.16062693494659"
      },
      "geometry": {
        "type": "Point",
        "coordinates": [
          -17.0688431777546,
          26.42673203225639
        ]
      }
    },
    {
      "type": "Feature",
      "properties": {
        "norad_id": 40894,
        "name": "GAOFEN-9 01",
        "group": "resource",
        "lat": -11.406786070338073,
        "lon": 38.928100567580806,
        "alt_km": 606.8835023466663,
        "timestamp": "2025-12-24T22:42:21.679420+00:00",
        "meta_object_name": "GAOFEN-9 01",
        "meta_object_id": "2015-047A",
        "meta_epoch": "2025-12-24T06:33:29.617344",
        "meta_mean_motion": 14.82449538,
        "meta_eccentricity": 0.0027447,
        "meta_inclination": 97.6528,
        "meta_ra_of_asc_node": 36.7299,
        "meta_arg_of_pericenter": 357.0383,
        "meta_mean_anomaly": 3.0664,
        "meta_ephemeris_type": 0,
        "meta_classification_type": "U",
        "meta_norad_cat_id": 40894,
        "meta_element_set_no": 999,
        "meta_rev_at_epoch": 55427,
        "meta_bstar": 0.00014352167,
        "meta_mean_motion_dot": 1.107e-05,
        "meta_mean_motion_ddot": 0,
        "tle_line1": "1 40894U 15047A   25358.27325946  .00001107  00000+0  14352-3 0  9999",
        "tle_line2": "2 40894  97.6528  36.7299 0027447 357.0383   3.0664 14.82449538554273"
      },
      "geometry": {
        "type": "Point",
        "coordinates": [
          38.928100567580806,
          -11.406786070338073
        ]
      }
    }
  ]
}